{"type":"FeatureCollection","note":"Natural Earth 1:10m lakes (public domain)","features":[{"type":"Feature","properties":{"name":"Lake Khanka"},"geometry":{"type":"Polygon","coordinates":[[[132.8205,45.1482],[132.8361,45.1076],[132.8381,45.067],[132.819,45.0246],[132.7425,44.9245],[132.7092,44.8951],[132.6674,44.8697],[132.6486,44.8547],[132.6409,44.8368],[132.6386,44.8271],[132.6294,44.8065],[132.6271,44.7956],[132.6291,44.7853],[132.6386,44.7623],[132.6409,44.7517],[132.6312,44.7105],[132.6044,44.6834],[132.4914,44.6263],[132.4758,44.6204],[132.4299,44.6107],[132.4184,44.6039],[132.4104,44.5916],[132.4016,44.5663],[132.3942,44.5524],[132.3854,44.5424],[132.3707,44.5321],[132.3536,44.528],[132.3207,44.5424],[132.2824,44.5483],[132.26,44.5607],[132.2426,44.5671],[132.2362,44.5733],[132.2323,44.5851],[132.2353,44.5904],[132.2409,44.5922],[132.2435,44.5933],[132.2447,44.6028],[132.2474,44.6066],[132.2474,44.6095],[132.24,44.6172],[132.2318,44.6222],[132.2241,44.6251],[132.2185,44.6292],[132.2164,44.6381],[132.225,44.6437],[132.2844,44.6343],[132.232,44.6637],[132.1075,44.6937],[132.0654,44.7299],[132.0442,44.7758],[132.0392,44.7959],[132.0375,44.8168],[132.104,44.8597],[132.1202,44.8677],[132.1093,44.9057],[132.1146,44.9492],[132.1143,44.9913],[132.086,45.0246],[132.0616,45.0316],[132.0345,45.0358],[132.0125,45.0455],[132.0033,45.0693],[132.0125,45.0905],[132.0301,45.1017],[132.0413,45.1129],[132.0307,45.1344],[132.0228,45.142],[132.0154,45.147],[132.0089,45.1526],[132.0033,45.1618],[132.0016,45.1718],[132.0001,45.203],[131.983,45.2115],[131.9927,45.2309],[132.0139,45.2518],[132.0307,45.2648],[132.109,45.3089],[132.1511,45.3248],[132.1958,45.334],[132.4201,45.3372],[132.5093,45.3151],[132.572,45.3078],[132.7222,45.2504],[132.7543,45.2321],[132.781,45.208],[132.7987,45.1897],[132.8205,45.1482]]]}},{"type":"Feature","properties":{"name":null},"geometry":{"type":"Polygon","coordinates":[[[137.4185,50.372],[137.4449,50.3705],[137.4723,50.3593],[137.457,50.3532],[137.427,50.3479],[137.4108,50.3393],[137.4008,50.3296],[137.3831,50.3167],[137.3775,50.3019],[137.4034,50.2875],[137.3902,50.2746],[137.3934,50.2566],[137.4067,50.2404],[137.4246,50.2328],[137.4187,50.2228],[137.4199,50.2148],[137.4264,50.2092],[137.4367,50.2057],[137.422,50.198],[137.4043,50.1818],[137.3937,50.1789],[137.3899,50.1868],[137.3767,50.2328],[137.3646,50.2551],[137.3631,50.2643],[137.3581,50.2704],[137.3343,50.2746],[137.3251,50.2778],[137.2669,50.2875],[137.2586,50.2869],[137.2359,50.2822],[137.2253,50.2813],[137.1997,50.2872],[137.1641,50.3102],[137.14,50.3155],[137.1147,50.3087],[137.1103,50.2925],[137.1179,50.2722],[137.1341,50.2451],[137.1423,50.2236],[137.1438,50.2163],[137.1406,50.206],[137.1332,50.1969],[137.1261,50.1921],[137.1129,50.2077],[137.0908,50.1992],[137.0231,50.1474],[137.014,50.1436],[136.991,50.1447],[136.9819,50.1406],[136.9648,50.1306],[136.9201,50.1197],[136.903,50.11],[136.9136,50.0915],[136.9045,50.0735],[136.8857,50.0603],[136.8659,50.0547],[136.8533,50.0447],[136.8356,49.9734],[136.7873,49.9034],[136.7779,49.8742],[136.7682,49.8619],[136.7658,49.8566],[136.7682,49.8495],[136.7782,49.8389],[136.7803,49.8324],[136.7823,49.8289],[136.7867,49.8262],[136.7959,49.8221],[136.7997,49.8165],[136.7976,49.8106],[136.7923,49.8056],[136.7867,49.8015],[136.7885,49.7974],[136.7968,49.7871],[136.8076,49.7703],[136.8162,49.763],[136.8171,49.76],[136.797,49.758],[136.7903,49.7591],[136.7865,49.7606],[136.7788,49.7644],[136.7756,49.7668],[136.7585,49.7824],[136.7508,49.7918],[136.7461,49.8015],[136.7452,49.8112],[136.7473,49.8327],[136.7461,49.8424],[136.7405,49.8507],[136.7332,49.8554],[136.7243,49.8595],[136.7152,49.8666],[136.6961,49.8748],[136.6743,49.8707],[136.6513,49.8619],[136.6296,49.8566],[136.6166,49.8583],[136.5931,49.8669],[136.5816,49.8698],[136.5674,49.8698],[136.5295,49.8636],[136.5106,49.8583],[136.382,49.7903],[136.3649,49.7777],[136.3502,49.7512],[136.3446,49.7468],[136.3072,49.7265],[136.2957,49.7123],[136.2731,49.6643],[136.2598,49.6529],[136.2286,49.637],[136.2148,49.627],[136.1886,49.6122],[136.1468,49.5984],[136.105,49.5946],[136.0809,49.6096],[136.0991,49.6155],[136.1285,49.6287],[136.1427,49.6308],[136.1486,49.6281],[136.15,49.6231],[136.1533,49.6184],[136.1633,49.6167],[136.1718,49.6187],[136.1809,49.624],[136.1974,49.637],[136.1877,49.6688],[136.2139,49.682],[136.2504,49.6897],[136.2731,49.7053],[136.2354,49.7008],[136.2225,49.7035],[136.2245,49.7188],[136.2121,49.7217],[136.2054,49.7259],[136.2015,49.7318],[136.1974,49.7394],[136.1989,49.7418],[136.1927,49.7736],[136.1907,49.7777],[136.1986,49.7909],[136.2166,49.8036],[136.2528,49.8227],[136.2333,49.828],[136.2127,49.8283],[136.193,49.8307],[136.1771,49.8424],[136.206,49.8489],[136.304,49.8492],[136.3299,49.8557],[136.3817,49.8869],[136.4097,49.8978],[136.4044,49.9075],[136.4041,49.9157],[136.4082,49.9216],[136.4164,49.9249],[136.4041,49.9428],[136.4161,49.9558],[136.4403,49.9637],[136.4647,49.9667],[136.4912,49.9646],[136.5189,49.9584],[136.5436,49.9472],[136.5607,49.9313],[136.5777,49.8957],[136.5925,49.8825],[136.619,49.8772],[136.712,49.8907],[136.7252,49.8895],[136.7311,49.8872],[136.7358,49.8884],[136.7461,49.8978],[136.7532,49.9084],[136.7617,49.9316],[136.7697,49.9416],[136.7738,49.9543],[136.7732,49.9961],[136.7803,50.0143],[136.8056,50.0438],[136.8124,50.0603],[136.8144,50.0862],[136.8177,50.0971],[136.8259,50.108],[136.845,50.1271],[136.853,50.1386],[136.8577,50.1612],[136.8621,50.1721],[136.8768,50.1877],[136.9513,50.2328],[136.9931,50.2448],[137.0128,50.254],[137.0779,50.3122],[137.0643,50.3443],[137.0579,50.3502],[137.0478,50.3467],[137.0364,50.3293],[137.0267,50.3222],[137.014,50.3217],[137.0178,50.3317],[137.052,50.3705],[137.0587,50.3814],[137.0614,50.3944],[137.0608,50.4017],[137.0599,50.4085],[137.0558,50.422],[137.0558,50.4344],[137.0608,50.4462],[137.0696,50.4521],[137.0805,50.4465],[137.0829,50.4429],[137.0899,50.4247],[137.0935,50.4197],[137.1229,50.3838],[137.1364,50.3414],[137.1462,50.3323],[137.1677,50.3464],[137.1765,50.3484],[137.1877,50.3426],[137.1994,50.334],[137.2118,50.3284],[137.2227,50.3278],[137.379,50.3549],[137.3976,50.3643],[137.4185,50.372]],[[137.0793,50.2236],[137.0941,50.246],[137.0746,50.2675],[137.0788,50.2722],[137.0802,50.2763],[137.0808,50.2855],[137.0723,50.2828],[137.0464,50.2663],[137.0237,50.2451],[137.0096,50.2375],[136.936,50.2098],[136.9298,50.2024],[136.9124,50.1733],[136.9057,50.1577],[136.9133,50.1509],[136.9286,50.1524],[136.9925,50.168],[137.0066,50.1733],[137.0196,50.1801],[137.0793,50.2236]]]}}]}