{"type":"FeatureCollection","note":"OpenStreetMap place=city/town (ODbL)","features":[{"type":"Feature","properties":{"name":"Birobidzhan","place":"city","population":68536},"geometry":{"type":"Point","coordinates":[132.927,48.7933]}},{"type":"Feature","properties":{"name":"Baoqing","place":"city","population":331377},"geometry":{"type":"Point","coordinates":[132.1987,46.3236]}},{"type":"Feature","properties":{"name":"Fujin","place":"city","population":125499},"geometry":{"type":"Point","coordinates":[132.0251,47.2398]}},{"type":"Feature","properties":{"name":"Raohe","place":"city","population":130519},"geometry":{"type":"Point","coordinates":[134.008,46.7982]}},{"type":"Feature","properties":{"name":"Dalneretschensk","place":"town","population":22521},"geometry":{"type":"Point","coordinates":[133.7349,45.9337]}},{"type":"Feature","properties":{"name":"Khabarovsk","place":"city","population":617168},"geometry":{"type":"Point","coordinates":[135.0763,48.4813]}},{"type":"Feature","properties":{"name":"Tongjiang","place":"city","population":61600},"geometry":{"type":"Point","coordinates":[132.5035,47.6398]}},{"type":"Feature","properties":{"name":"Hulin","place":"city","population":184294},"geometry":{"type":"Point","coordinates":[132.9701,45.7638]}},{"type":"Feature","properties":{"name":"Lesozavodsk","place":"town","population":34289},"geometry":{"type":"Point","coordinates":[133.4047,45.4653]}},{"type":"Feature","properties":{"name":"Fuyuan","place":"city","population":36500},"geometry":{"type":"Point","coordinates":[134.2891,48.356]}}]}