{"type":"FeatureCollection","note":"Natural Earth 1:50m admin-1, China, study window","features":[{"type":"Feature","properties":{"name":"Heilongjiang"},"geometry":{"type":"Polygon","coordinates":[[[121.4054,53.3171],[121.7439,53.3836],[122.0243,53.4388],[122.0888,53.4515],[122.3378,53.485],[122.3802,53.4625],[122.5159,53.457],[122.7448,53.4685],[122.9576,53.4977],[123.1541,53.5446],[123.3096,53.5556],[123.424,53.5308],[123.4895,53.5294],[123.5347,53.5264],[123.5597,53.5267],[123.6078,53.5465],[123.741,53.511],[123.9947,53.4056],[124.1543,53.3587],[124.2199,53.3701],[124.2915,53.3409],[124.3691,53.2709],[124.4659,53.2296],[124.6399,53.2107],[124.8124,53.1338],[124.8821,53.1297],[124.9066,53.1727],[124.971,53.1973],[125.075,53.2037],[125.2256,53.1658],[125.4225,53.0837],[125.546,53.0476],[125.596,53.0575],[125.6491,53.0423],[125.6917,53.0037],[125.6954,52.9563],[125.6808,52.9308],[125.7281,52.8907],[125.7828,52.8907],[125.8719,52.8715],[125.9416,52.8007],[126.0043,52.7679],[126.0482,52.7395],[126.056,52.7159],[126.0601,52.692],[126.047,52.6735],[126.0232,52.643],[126.016,52.6102],[126.0459,52.5734],[126.1566,52.5466],[126.1944,52.5191],[126.203,52.4838],[126.2376,52.4448],[126.3128,52.3997],[126.3417,52.362],[126.3242,52.3317],[126.3463,52.3063],[126.3835,52.2865],[126.3915,52.2145],[126.3948,52.173],[126.4556,52.1265],[126.4681,52.0313],[126.5106,51.9258],[126.6537,51.7813],[126.7008,51.703],[126.6887,51.6099],[126.7092,51.5663],[126.7745,51.5451],[126.8054,51.5056],[126.8018,51.448],[126.8273,51.4123],[126.8477,51.3742],[126.8338,51.3149],[126.8544,51.2614],[126.8877,51.2301],[126.9115,51.1723],[126.9248,51.1001],[127.0204,50.9859],[127.1983,50.8295],[127.307,50.708],[127.3468,50.6214],[127.3472,50.5501],[127.3082,50.4942],[127.3061,50.4535],[127.3408,50.4281],[127.3512,50.3936],[127.3372,50.3502],[127.3953,50.2986],[127.5903,50.209],[127.5124,50.0717],[127.4918,49.975],[127.5024,49.8734],[127.5508,49.8018],[127.6367,49.7602],[127.6902,49.7168],[127.7112,49.6715],[127.8143,49.6221],[127.9996,49.5686],[128.2371,49.5593],[128.5268,49.5942],[128.704,49.6001],[128.769,49.577],[128.791,49.5418],[128.7703,49.4947],[128.8194,49.4638],[128.9383,49.4489],[129.0203,49.4193],[129.0651,49.3747],[129.1201,49.3621],[129.1851,49.3814],[129.2484,49.3786],[129.3099,49.3538],[129.3501,49.3624],[129.3847,49.3894],[129.4407,49.3894],[129.4982,49.3888],[129.5337,49.3234],[129.5914,49.2867],[129.6711,49.2785],[129.7925,49.1989],[130.0371,48.9723],[130.196,48.8916],[130.3553,48.8664],[130.5531,48.8612],[130.6172,48.7732],[130.5656,48.6801],[130.5521,48.6025],[130.5973,48.5747],[130.6592,48.4834],[130.7469,48.4304],[130.7634,48.3884],[130.8042,48.3415],[130.7872,48.2546],[130.7121,48.1277],[130.7326,48.0192],[130.8486,47.9294],[130.9154,47.8429],[130.9329,47.7598],[130.962,47.7093],[131.0028,47.6915],[131.1218,47.6976],[131.3194,47.7278],[131.4643,47.7226],[131.5568,47.682],[131.7853,47.6805],[132.1498,47.718],[132.3802,47.7295],[132.4763,47.715],[132.5619,47.7685],[132.6369,47.8901],[132.7072,47.9473],[132.7728,47.9401],[132.8771,47.9791],[133.0201,48.0644],[133.144,48.1056],[133.3011,48.1015],[133.4684,48.0972],[133.5733,48.133],[133.6718,48.2077],[133.8422,48.2737],[134.2059,48.3599],[134.2934,48.3734],[134.3232,48.3701],[134.3349,48.3688],[134.4562,48.3553],[134.5635,48.3217],[134.6652,48.2539],[134.6808,48.2104],[134.6693,48.1533],[134.6472,48.1202],[134.6054,48.0829],[134.566,48.0225],[134.5913,47.9752],[134.6503,47.8743],[134.6986,47.8014],[134.7523,47.7154],[134.7281,47.6845],[134.6958,47.6249],[134.5962,47.5239],[134.5419,47.4852],[134.4835,47.4474],[134.3825,47.4382],[134.3394,47.4295],[134.2909,47.4136],[134.2601,47.3777],[134.2252,47.3526],[134.1677,47.3022],[134.163,47.2587],[134.1893,47.1942],[134.2021,47.1281],[134.1369,47.069],[134.0864,46.9781],[134.0714,46.9508],[134.046,46.882],[134.0386,46.8582],[134.0226,46.7132],[133.9724,46.6368],[133.9575,46.6142],[133.8666,46.4991],[133.8867,46.4306],[133.9028,46.3669],[133.8802,46.336],[133.8748,46.3091],[133.8613,46.2478],[133.8328,46.2243],[133.7502,46.1859],[133.7007,46.1398],[133.7111,46.0696],[133.6857,46.0089],[133.6478,45.9552],[133.608,45.9203],[133.5512,45.8978],[133.5131,45.8788],[133.4847,45.8104],[133.4758,45.7576],[133.4491,45.7051],[133.4656,45.6512],[133.4364,45.6047],[133.3555,45.5722],[133.3095,45.5531],[133.2669,45.5453],[133.186,45.4948],[133.1134,45.3214],[133.0969,45.2205],[133.1135,45.1307],[133.0118,45.0746],[132.936,45.0299],[132.8888,45.0461],[132.8386,45.0611],[132.7231,45.0806],[132.6656,45.0937],[132.549,45.1228],[132.363,45.16],[132.1814,45.2033],[132.0674,45.226],[131.9775,45.244],[131.9092,45.2737],[131.8518,45.3268],[131.7949,45.3053],[131.7421,45.2426],[131.654,45.2054],[131.614,45.1366],[131.5788,45.0837],[131.4875,45.0131],[131.4469,44.984],[131.2683,44.9361],[131.228,44.9202],[131.0823,44.91],[131.033,44.8889],[130.9817,44.8443],[130.9677,44.8],[131.0039,44.7532],[131.0607,44.6597],[131.0869,44.5957],[131.1258,44.4692],[131.2553,44.0716],[131.2133,44.0029],[131.1742,43.7047],[131.1837,43.6509],[131.18,43.5671],[131.1825,43.5056],[131.2092,43.4904],[131.2439,43.469],[131.2451,43.4667],[131.1495,43.4361],[130.9946,43.5077],[130.9166,43.4505],[130.5887,43.6277],[130.4141,43.6692],[130.3328,43.9278],[130.2802,43.9644],[130.1036,43.8454],[130.0332,43.8556],[130.0001,43.9836],[129.9129,44.0216],[129.8021,43.9655],[129.7524,43.8742],[129.5349,43.8703],[129.2492,43.7862],[129.2157,43.7383],[129.2289,43.6084],[129.0149,43.5397],[128.8829,43.5562],[128.7645,43.7091],[128.7474,43.8022],[128.6315,43.9122],[128.5288,44.0801],[128.4459,44.1539],[128.4507,44.3155],[128.4188,44.4501],[128.3587,44.5017],[128.2069,44.4405],[128.1553,44.353],[128.043,44.3407],[128.0521,44.1258],[127.8496,44.0559],[127.7444,44.0856],[127.7147,44.1615],[127.6098,44.2201],[127.6176,44.2722],[127.4928,44.4109],[127.5593,44.5738],[127.3752,44.6488],[127.2331,44.616],[127.1473,44.6547],[127.045,44.5982],[127.0323,44.7306],[126.9783,44.8261],[127.0766,44.934],[126.9527,45.1342],[126.789,45.1493],[126.5593,45.2467],[126.421,45.2285],[126.1505,45.1412],[125.8407,45.2348],[125.7049,45.3597],[125.6987,45.5109],[125.5212,45.471],[125.4325,45.4772],[125.3074,45.417],[125.1035,45.3953],[125.0277,45.4984],[124.8725,45.4486],[124.6119,45.4479],[124.5631,45.4153],[124.3956,45.4515],[124.3323,45.5473],[124.2236,45.6355],[124.141,45.6322],[124.0178,45.7817],[124.062,45.8717],[123.9794,45.9781],[124.0341,46.0185],[123.9194,46.2723],[123.3561,46.2352],[123.2583,46.2651],[123.1617,46.2201],[122.9889,46.4066],[123.0197,46.6123],[123.0942,46.622],[123.2915,46.5864],[123.3973,46.5978],[123.5361,46.692],[123.6087,46.7746],[123.4894,46.8173],[123.38,46.8981],[123.3305,46.8326],[123.1868,46.7616],[122.9962,46.8403],[122.7973,47.0337],[122.574,47.1311],[122.4052,47.3317],[122.4947,47.4102],[122.5654,47.5312],[122.7973,47.6436],[123.0954,47.7549],[123.2068,47.8138],[123.2933,47.9457],[123.5776,48.0543],[123.7269,48.1911],[124.0779,48.4483],[124.234,48.5308],[124.3008,48.4919],[124.3272,48.3322],[124.4256,48.1744],[124.5205,48.1287],[124.5622,48.2362],[124.5207,48.369],[124.5381,48.5717],[124.6162,48.6676],[124.6218,48.742],[124.8216,49.0609],[124.8639,49.1754],[125.1581,49.1511],[125.2229,49.22],[125.2674,49.4385],[125.2357,49.5544],[125.1306,49.6366],[125.2196,49.6681],[125.2348,49.848],[125.1885,49.9419],[125.2952,50.0145],[125.2644,50.1057],[125.4184,50.1946],[125.5308,50.393],[125.8094,50.5622],[125.824,50.7668],[126.001,50.9018],[126.0563,50.9803],[125.9844,51.1042],[125.8707,51.1448],[125.8434,51.2062],[125.7195,51.2537],[125.5769,51.3893],[125.4866,51.5074],[125.3333,51.5827],[125.1275,51.6157],[125.0606,51.5344],[124.8206,51.3659],[124.6662,51.3353],[124.5019,51.3606],[124.3508,51.2786],[124.1621,51.3284],[124.0044,51.3017],[123.8663,51.3134],[123.7888,51.2328],[123.5696,51.2039],[123.4383,51.2731],[123.2717,51.2667],[123.0881,51.3125],[122.9562,51.3861],[122.8389,51.5106],[122.8355,51.5678],[122.7145,51.7017],[122.7542,51.8475],[122.6377,52.095],[122.7751,52.2],[122.7307,52.2489],[122.4918,52.2948],[122.3386,52.4537],[122.1737,52.4796],[122.0179,52.2831],[121.8313,52.2694],[121.6923,52.3885],[121.4909,52.4447],[121.1739,52.595],[121.5027,52.7747],[121.6915,52.9083],[121.8002,53.0236],[121.6072,53.2407],[121.4054,53.3171]]]}}]}