{"type":"FeatureCollection","note":"Natural Earth 1:10m river centrelines (public domain)","features":[{"type":"Feature","properties":{"name":"Muling","scalerank":9.0},"geometry":{"type":"MultiLineString","coordinates":[[[130.0798,43.8964],[130.1,43.9211],[130.1093,43.9464],[130.1159,43.9725],[130.1282,43.9998],[130.1365,44.01],[130.1559,44.0282],[130.1638,44.0384],[130.1721,44.0584],[130.1835,44.0996],[130.194,44.1195],[130.2517,44.18],[130.2554,44.1903],[130.2575,44.2119],[130.2634,44.2211],[130.2741,44.2272],[130.2978,44.2359],[130.3079,44.2431],[130.3145,44.2542],[130.3214,44.2807],[130.3268,44.2932],[130.3421,44.3106],[130.3588,44.3242],[130.3731,44.3395],[130.3816,44.3625],[130.3808,44.3863],[130.3715,44.4026],[130.3554,44.4117],[130.3341,44.4138],[130.3059,44.409],[130.2957,44.4108],[130.28,44.4202],[130.2732,44.4327],[130.2695,44.4471],[130.2622,44.462],[130.2534,44.4686],[130.2417,44.474],[130.2324,44.481],[130.2305,44.492],[130.235,44.4981],[130.2511,44.5057],[130.2573,44.5117],[130.2732,44.555],[130.2798,44.5682],[130.2915,44.58],[130.3762,44.6284],[130.3857,44.6368],[130.3927,44.6527],[130.3931,44.6688],[130.3915,44.6855],[130.3928,44.7027],[130.4038,44.7246],[130.4395,44.7615],[130.4546,44.7817],[130.4882,44.8679],[130.5051,44.8972],[130.5094,44.909],[130.5156,44.9462],[130.5191,44.9583],[130.544,45.0044],[130.5603,45.0251],[130.5947,45.057],[130.6104,45.0679],[130.6275,45.0763],[130.6471,45.0821],[130.6677,45.0931],[130.6712,45.1109],[130.6692,45.1315],[130.6741,45.1515],[130.6841,45.1607],[130.7119,45.1739],[130.7239,45.1817],[130.7368,45.1965],[130.8075,45.3074],[130.823,45.3255],[130.8535,45.3432],[130.8912,45.3484],[130.9298,45.3435],[130.9631,45.3306],[130.9972,45.3097],[131.0142,45.3027],[131.0361,45.2994],[131.115,45.2996],[131.1582,45.2888],[131.1987,45.2725],[131.2416,45.2646],[131.4414,45.2825],[131.5466,45.3281],[131.6028,45.3382],[131.6262,45.3346],[131.669,45.321],[131.6923,45.3196],[131.7227,45.3285],[131.7498,45.3453],[131.9397,45.5111],[132.0272,45.5505],[132.0628,45.574],[132.0821,45.5825],[132.0953,45.5846],[132.1375,45.5845],[132.1709,45.5954],[132.2691,45.6659],[132.2944,45.6906],[132.311,45.6983],[132.3234,45.6992],[132.4277,45.6876],[132.4955,45.6695],[132.6869,45.6726],[132.8804,45.7199],[133.0562,45.739],[133.1047,45.753],[133.267,45.8355],[133.3453,45.8602],[133.4273,45.8727],[133.5102,45.8734]]]}},{"type":"Feature","properties":{"name":"Songhua","scalerank":6.0},"geometry":{"type":"MultiLineString","coordinates":[[[132.5178,47.7066],[132.5144,47.6939],[132.5113,47.6881],[132.5066,47.6835],[132.4995,47.6804],[132.4917,47.6795],[132.4758,47.6798],[132.4701,47.679],[132.4648,47.6772],[132.4601,47.674],[132.457,47.6691],[132.4556,47.661],[132.4579,47.6544],[132.4662,47.6414],[132.4673,47.6369],[132.4671,47.6319],[132.4659,47.6268],[132.4625,47.6182],[132.4513,47.601],[132.3795,47.5201],[132.351,47.5006],[132.3222,47.4738],[132.3134,47.4673],[132.0805,47.3714],[132.063,47.3605],[132.0508,47.3494],[132.0403,47.3367],[132.0361,47.3294],[132.0346,47.3255],[132.03,47.3074],[132.0087,47.2692],[132.0001,47.2599],[131.9889,47.2536],[131.9763,47.2501],[131.9635,47.2487],[131.7915,47.2617],[131.7804,47.2608],[131.7266,47.2453],[131.6243,47.2338],[131.5317,47.2453],[131.4669,47.2451],[131.4536,47.2425],[131.3206,47.1886],[131.3003,47.1855],[131.1499,47.2062],[131.1316,47.2051],[131.0667,47.1886],[131.0542,47.1882],[131.0416,47.1896],[131.0294,47.1931],[130.9968,47.2082],[130.9854,47.2117],[130.9722,47.2127],[130.9594,47.211],[130.9072,47.1969],[130.8533,47.1889],[130.8291,47.1805],[130.8062,47.1683],[130.7847,47.1529],[130.7743,47.1435],[130.7654,47.1336],[130.7442,47.1005],[130.6891,47.0441],[130.6787,47.036],[130.667,47.0295],[130.6543,47.0248],[130.6414,47.0225],[130.5891,47.0191],[130.5593,47.0095],[130.5449,47.0016],[130.5339,46.9916],[130.5313,46.9869],[130.5298,46.9818],[130.5293,46.9468],[130.5278,46.9385],[130.5268,46.9346],[130.5249,46.9316],[130.5199,46.9258],[130.5181,46.9229],[130.5168,46.92],[130.5152,46.9133],[130.5123,46.9054],[130.5083,46.8981],[130.5034,46.8914],[130.4978,46.8852],[130.4884,46.8771],[130.478,46.8702],[130.4556,46.8598],[130.4059,46.8509],[130.348,46.8335],[130.3393,46.8336],[130.3301,46.8372]],[[124.6746,45.4505],[124.7223,45.4505],[124.7346,45.4537],[124.7555,45.4681],[124.7673,45.4709],[124.7719,45.4676],[124.7761,45.4606],[124.7804,45.4505],[124.7856,45.45],[124.7965,45.4511],[124.8255,45.4452],[124.8491,45.443],[124.8611,45.4443],[124.8722,45.4485],[124.8803,45.456],[124.8834,45.4672],[124.8824,45.4703],[124.88,45.4721],[124.8779,45.4747],[124.8767,45.4806],[124.8787,45.4883],[124.8828,45.4927],[124.8875,45.4956],[124.8902,45.4982],[124.8945,45.5187],[124.8976,45.5272],[124.9039,45.5324],[124.9153,45.5327],[124.9264,45.5276],[124.9347,45.5189],[124.9381,45.5082],[124.9509,45.4948],[124.9797,45.4934],[125.0276,45.4982],[125.0414,45.4929],[125.044,45.4885],[125.0421,45.4822],[125.0418,45.4709],[125.0435,45.4514],[125.0473,45.4449],[125.0586,45.4331],[125.0737,45.423],[125.0797,45.4166],[125.082,45.4055],[125.0816,45.3898],[125.0826,45.386],[125.0886,45.3894],[125.1031,45.3952],[125.2325,45.4137],[125.2488,45.4134],[125.2671,45.4089],[125.2759,45.4047],[125.2805,45.4015],[125.2855,45.4003],[125.295,45.402],[125.3007,45.4066],[125.3024,45.4127],[125.3071,45.4169],[125.3217,45.4156],[125.356,45.4006],[125.3745,45.3984],[125.3975,45.4089],[125.4111,45.4249],[125.4224,45.4613],[125.4321,45.4771],[125.4511,45.4848],[125.4736,45.481],[125.4975,45.4737],[125.521,45.4709],[125.5429,45.4759],[125.6035,45.5045],[125.6187,45.5081],[125.6581,45.5045],[125.6677,45.506],[125.6873,45.5119],[125.6991,45.5119],[125.723,45.5176],[125.7983,45.5119],[125.8108,45.5093],[125.8326,45.4988],[125.8425,45.4982],[125.8504,45.5048],[125.8704,45.5393],[125.887,45.5565],[125.8984,45.5637],[125.9231,45.5698],[125.9268,45.5778],[125.9251,45.5972],[125.9309,45.6222],[125.9463,45.6285],[125.9684,45.6287],[125.9939,45.6354],[125.9863,45.644],[125.9668,45.6496],[125.9597,45.6553],[125.9592,45.6687],[125.9712,45.6749],[125.9869,45.6765],[125.9973,45.6764],[126.003,45.6807],[126.0152,45.6994],[126.0243,45.7037],[126.0381,45.7034],[126.0466,45.7018],[126.069,45.6907],[126.1095,45.6793],[126.1511,45.6815],[126.2402,45.6968],[126.3557,45.6957],[126.3589,45.6983],[126.3772,45.7172],[126.3853,45.7235],[126.3953,45.7277],[126.4612,45.7402],[126.484,45.7503],[126.4937,45.7686],[126.5042,45.7676],[126.5564,45.754],[126.5761,45.7515],[126.593,45.7567],[126.6376,45.7857],[126.6709,45.795],[126.685,45.8011],[126.6928,45.8135],[126.6919,45.8304],[126.6858,45.8441],[126.6832,45.8579],[126.6928,45.8751],[126.709,45.8837],[126.7291,45.8898],[126.7432,45.8987],[126.7412,45.916],[126.7861,45.9255],[126.8206,45.9483],[126.8526,45.9754],[126.8907,45.9979],[126.9353,46.0133],[126.983,46.024],[127.0312,46.0269],[127.0764,46.0184],[127.1657,45.9815],[127.1889,45.9766],[127.275,45.9781],[127.3268,45.9693],[127.353,45.9605],[127.3644,45.9473],[127.3699,45.9247],[127.3844,45.9183],[127.4845,45.9264],[127.5112,45.934],[127.5283,45.9508],[127.5293,45.9575],[127.5269,45.9634],[127.5237,45.9688],[127.5221,45.9743],[127.524,45.9807],[127.5331,45.9913],[127.5357,45.9979],[127.5357,46.0204],[127.5392,46.0305],[127.5493,46.0388],[127.5746,46.0408],[127.666,46.0115],[127.6923,46.0082],[127.6974,46.004],[127.7064,45.9917],[127.7117,45.9822],[127.7147,45.9742],[127.7187,45.9663],[127.7275,45.9569],[127.7539,45.9687],[127.7639,45.96],[127.7701,45.9446],[127.7858,45.9365],[127.7978,45.9344],[127.825,45.9254],[127.8374,45.9234],[127.892,45.9296],[127.9177,45.9258],[127.9431,45.9193],[127.9679,45.9171],[128.0134,45.9361],[128.0376,45.9365],[128.0619,45.9312],[128.0838,45.9234],[128.1283,45.9161],[128.1738,45.9246],[128.2883,45.9757],[128.3097,45.9793],[128.3614,45.9781],[128.3858,45.9744],[128.4475,45.9439],[128.5759,45.9095],[128.5908,45.9023],[128.622,45.9162],[128.6392,45.9214],[128.6558,45.9234],[128.6733,45.9277],[128.7061,45.9465],[128.7174,45.9508],[128.7304,45.9536],[128.7583,45.9666],[128.7759,45.9706],[128.8189,45.9727],[128.8412,45.9706],[128.8584,45.9644],[128.878,45.9405],[128.8884,45.9134],[128.9044,45.8911],[128.9701,45.8747],[128.9819,45.8751],[128.9909,45.8786],[129.0074,45.8906],[129.016,45.8955],[129.0342,45.8995],[129.074,45.9028],[129.0906,45.9097],[129.0906,45.9023],[129.1657,45.9438],[129.1987,45.9709],[129.2544,46.0373],[129.272,46.0532],[129.2866,46.06],[129.2988,46.0709],[129.324,46.1419],[129.355,46.2047],[129.3757,46.2296],[129.3899,46.2541],[129.3959,46.2592],[129.4338,46.2791],[129.4566,46.3],[129.4679,46.3057],[129.5032,46.3111],[129.5317,46.3297],[129.5464,46.3348],[129.5571,46.3437],[129.5641,46.3685],[129.5617,46.3978],[129.5641,46.4095],[129.569,46.4201],[129.582,46.4394],[129.6041,46.4652],[129.6375,46.4959],[129.6528,46.5063],[129.6934,46.5218],[129.7826,46.544],[129.8247,46.5665],[129.8484,46.5879],[129.859,46.5943],[129.8887,46.6062],[129.8963,46.6112],[129.9048,46.6216],[129.9102,46.63],[129.9129,46.6394],[129.9156,46.6662],[129.9213,46.6748],[129.9639,46.7084],[129.9688,46.7173],[129.9697,46.7283],[129.9679,46.7526],[129.9719,46.7623],[129.9903,46.7741],[130.0109,46.7754],[130.0575,46.7657],[130.0835,46.7634],[130.0955,46.7685],[130.0986,46.7816],[130.0986,46.8035],[130.107,46.8245],[130.1276,46.8325],[130.1526,46.8319],[130.1991,46.8203],[130.2172,46.8187],[130.2333,46.8239],[130.2525,46.8377],[130.273,46.8492],[130.2913,46.8494],[130.332,46.8346]]]}},{"type":"Feature","properties":{"name":"Ussuri","scalerank":7.0},"geometry":{"type":"MultiLineString","coordinates":[[[134.316,43.6488],[134.2921,43.6126],[134.2796,43.6063],[134.155,43.598],[134.1321,43.6015],[134.1123,43.6102],[134.0336,43.6579],[133.9871,43.6774],[133.8468,43.7466],[133.8367,43.7545],[133.835,43.7696],[133.8673,43.8323],[133.8701,43.8581],[133.8741,43.8671],[133.8803,43.8732],[133.8871,43.8753],[133.8945,43.8768],[133.9022,43.8807],[133.9317,43.9156],[133.9431,43.9217],[133.9314,43.936],[133.9083,43.9838],[133.9182,44.0086],[133.9087,44.0266],[133.8621,44.0618],[133.8442,44.0704],[133.8367,44.076],[133.8315,44.0878],[133.8351,44.0996],[133.8425,44.1108],[133.8473,44.1209],[133.8496,44.135],[133.8489,44.1424],[133.8223,44.1973],[133.8196,44.2063],[133.8218,44.2286],[133.8286,44.2414],[133.8604,44.2644],[133.8931,44.2989],[133.9089,44.3207],[133.9157,44.3363],[133.9252,44.3522],[133.947,44.3663],[133.9915,44.3872],[134.0112,44.4057],[134.0182,44.409],[134.0304,44.4079],[134.047,44.3973],[134.0564,44.3946],[134.064,44.4057],[134.0625,44.4309],[134.053,44.4766],[134.0501,44.4851],[134.0474,44.4893],[134.0457,44.4941],[134.0462,44.5045],[134.0481,44.5065],[134.0584,44.5277],[134.0598,44.5318],[134.0724,44.5437],[134.1138,44.5734],[134.1253,44.5849],[134.1314,44.5965],[134.1289,44.6101],[134.1138,44.6275],[134.1013,44.6364],[134.0859,44.6426],[134.0709,44.6413],[134.0598,44.6275],[134.0222,44.6459],[133.9877,44.6718],[133.9674,44.6823],[133.9541,44.6752],[133.9419,44.6623],[133.9257,44.6553],[133.8473,44.6684],[133.8101,44.667],[133.7914,44.6685],[133.7717,44.6752],[133.6984,44.7419],[133.664,44.7547],[133.6575,44.762],[133.6482,44.7783],[133.6491,44.781],[133.6523,44.7849],[133.6541,44.7899],[133.6514,44.7957],[133.6472,44.7986],[133.6339,44.8062],[133.6305,44.8122],[133.6284,44.8175],[133.6255,44.8222],[133.6204,44.8267],[133.5922,44.8425],[133.5862,44.8472],[133.58,44.8669],[133.5798,44.9331],[133.569,44.9601],[133.5564,44.9738],[133.5447,44.9894],[133.5401,45.0057],[133.5486,45.0216],[133.5455,45.0303],[133.5226,45.0672],[133.5109,45.0799],[133.5681,45.0984],[133.5908,45.1118],[133.5862,45.1345],[133.5947,45.1494],[133.5959,45.1682],[133.5914,45.1865],[133.5828,45.1997],[133.5814,45.2072],[133.5864,45.2268],[133.5828,45.2307],[133.5698,45.2334],[133.5616,45.2396],[133.5547,45.2464],[133.5451,45.2512],[133.5068,45.2473],[133.4873,45.2518],[133.5003,45.2837],[133.4788,45.3094],[133.4844,45.3264],[133.4575,45.3487],[133.4497,45.3606],[133.4566,45.3748],[133.4371,45.4126],[133.4233,45.4337],[133.4072,45.4462],[133.3993,45.454],[133.3918,45.4632],[133.3882,45.4709],[133.3887,45.4789],[133.3928,45.4854],[133.4014,45.4916],[133.4148,45.4982],[133.3949,45.5184],[133.4078,45.5367],[133.4243,45.5545],[133.4148,45.5733]]]}},{"type":"Feature","properties":{"name":"Song’acha","scalerank":7.0},"geometry":{"type":"MultiLineString","coordinates":[[[132.8394,45.0594],[132.921,45.0281],[132.9531,45.0247],[132.9658,45.0291],[132.9924,45.0488],[133.0237,45.0586],[133.0494,45.082],[133.073,45.0908],[133.0984,45.108],[133.1152,45.1233],[133.1211,45.1315],[133.1249,45.1416],[133.127,45.1556],[133.1204,45.1837],[133.1063,45.215],[133.0973,45.2438],[133.1065,45.2649],[133.1016,45.2875],[133.127,45.3853],[133.1284,45.4029],[133.1329,45.4199],[133.1399,45.4357],[133.1795,45.4941],[133.189,45.5045],[133.2018,45.5115],[133.2407,45.5235],[133.2713,45.5286],[133.2986,45.5423],[133.33,45.5495],[133.3623,45.5682],[133.3745,45.5733],[133.4132,45.5736]]]}},{"type":"Feature","properties":{"name":"Ussuri","scalerank":7.0},"geometry":{"type":"MultiLineString","coordinates":[[[133.4132,45.5736],[133.4248,45.5806],[133.4148,45.6007],[133.4273,45.6155],[133.4417,45.6209],[133.4581,45.6229],[133.477,45.628],[133.4714,45.6327],[133.4619,45.6442],[133.4566,45.6491],[133.4825,45.6632],[133.4912,45.6737],[133.4876,45.687],[133.4765,45.6938],[133.4513,45.6994],[133.4429,45.7099],[133.4707,45.7291],[133.4846,45.7687],[133.5109,45.7788],[133.5032,45.7879],[133.4834,45.7969],[133.477,45.8061],[133.4771,45.8203],[133.4846,45.8287],[133.4937,45.8336],[133.4981,45.8375],[133.5024,45.8623],[133.5141,45.8795],[133.5313,45.8885],[133.552,45.8887],[133.5588,45.8855],[133.5639,45.8808],[133.5698,45.8767],[133.5793,45.8751],[133.5857,45.8766],[133.5857,45.8801],[133.5842,45.8844],[133.5862,45.8887],[133.6028,45.8989],[133.6059,45.9053],[133.6066,45.9197],[133.6098,45.93],[133.6174,45.9365],[133.6275,45.9381],[133.6495,45.9281],[133.6578,45.9348],[133.6944,46.023],[133.7197,46.064],[133.719,46.0795],[133.696,46.1153],[133.687,46.142],[133.6984,46.1493],[133.7197,46.1505],[133.7407,46.1593],[133.7657,46.1782],[133.7748,46.1869],[133.7813,46.197],[133.7862,46.2069],[133.7932,46.2145],[133.8059,46.2176],[133.8129,46.2144],[133.821,46.2004],[133.8298,46.1971],[133.8364,46.2007],[133.8526,46.2177],[133.8604,46.2238],[133.8549,46.2369],[133.8693,46.2447],[133.8897,46.251],[133.9022,46.2592],[133.9018,46.2783],[133.8939,46.2916],[133.8935,46.3021],[133.9157,46.3133],[133.9067,46.3227],[133.896,46.3275],[133.8849,46.3269],[133.8741,46.32],[133.8633,46.3395],[133.8806,46.3539],[133.9257,46.3715],[133.9336,46.391],[133.9212,46.4104],[133.8999,46.4268],[133.8816,46.4374],[133.8702,46.4407],[133.8613,46.4413],[133.854,46.4449],[133.8473,46.4572],[133.8455,46.4709],[133.8491,46.4805],[133.8916,46.5292],[133.896,46.5385],[133.8987,46.5635],[133.9022,46.5739],[133.9201,46.5906],[133.9672,46.6114],[133.9877,46.6254],[134.0051,46.6461],[134.0143,46.6652],[134.0256,46.711],[134.0415,46.753],[134.0444,46.7723],[134.0356,46.7899],[134.0213,46.8064],[134.0164,46.8197],[134.0203,46.8343],[134.0625,46.9071],[134.0665,46.9271],[134.0665,46.968],[134.0688,46.9815],[134.074,46.9884],[134.0806,46.9929],[134.087,46.9991],[134.114,47.0561],[134.124,47.0707],[134.1454,47.0814],[134.1968,47.0854],[134.2168,47.0947],[134.2267,47.118],[134.2158,47.138],[134.1984,47.1558],[134.1895,47.1732],[134.1953,47.194],[134.1969,47.2056],[134.1929,47.2108],[134.1863,47.2139],[134.1681,47.2308],[134.1616,47.2386],[134.1539,47.2581],[134.1597,47.2719],[134.1697,47.2871],[134.1752,47.3107],[134.1834,47.3277],[134.2026,47.3387],[134.2447,47.3553],[134.2573,47.3675],[134.2793,47.398],[134.2925,47.41],[134.3125,47.4204],[134.3324,47.4266],[134.3536,47.4296],[134.3779,47.4305],[134.3887,47.4331],[134.4015,47.4376],[134.4146,47.4395],[134.4361,47.43],[134.4717,47.4289],[134.4844,47.4305],[134.5001,47.4392],[134.5349,47.4658],[134.5566,47.4714],[134.5603,47.4821],[134.6038,47.528],[134.6147,47.5369],[134.624,47.5499],[134.6679,47.5743],[134.6824,47.5881],[134.686,47.6091],[134.6865,47.6314],[134.6926,47.6492],[134.7136,47.6564],[134.7252,47.6635],[134.7722,47.711],[134.7649,47.7185],[134.7695,47.7413],[134.6962,47.7954],[134.676,47.8246],[134.6738,47.8408],[134.6674,47.8649],[134.6575,47.887],[134.6454,47.8966],[134.6226,47.9005],[134.5989,47.911],[134.5874,47.9261],[134.6011,47.9444],[134.5667,47.9858],[134.5591,48.0098],[134.5669,48.0406],[134.5862,48.0615],[134.6476,48.1024],[134.6624,48.1082],[134.6826,48.1358],[134.6871,48.2201],[134.7029,48.2529],[134.7184,48.2636],[134.7599,48.2835],[134.7913,48.2923],[134.8224,48.3183],[134.8406,48.3279],[134.9605,48.3499],[134.9981,48.3627],[135.052,48.3926],[135.0701,48.4064],[135.0781,48.4144],[135.0844,48.4237],[135.0879,48.432],[135.0903,48.4414],[135.09,48.4507],[135.0857,48.4585],[135.0764,48.4664],[135.0545,48.4794],[135.0434,48.4838]]]}},{"type":"Feature","properties":{"name":"Amur","scalerank":3.0},"geometry":{"type":"MultiLineString","coordinates":[[[140.7066,53.111],[140.6602,53.0961],[140.5942,53.0841],[140.5838,53.0849],[140.5772,53.0867],[140.5584,53.0947],[140.5016,53.1106],[140.4841,53.1197],[140.4557,53.1389],[140.4412,53.1467],[140.4092,53.1572],[140.3381,53.2007],[140.3042,53.2136],[140.2632,53.2217],[139.9903,53.2149],[139.9662,53.2177],[139.9157,53.213],[139.8904,53.204],[139.8699,53.1884],[139.8591,53.1658],[139.858,53.1425],[139.8559,53.1354],[139.8545,53.1334],[139.8505,53.1296],[139.8487,53.1274],[139.8473,53.1239],[139.8449,53.1127],[139.8317,53.0841],[139.8198,53.0657],[139.8051,53.0496],[139.7986,53.0454],[139.7922,53.043],[139.7779,53.0402],[139.7711,53.0367],[139.7529,53.0176],[139.7252,52.9973],[139.7123,52.9854],[139.7035,52.9716],[139.7022,52.9615],[139.7064,52.9532],[139.7136,52.9466],[139.7529,52.9251],[139.8717,52.8816],[139.9353,52.8659],[140.0004,52.837],[140.0313,52.8121],[140.0527,52.7995],[140.0582,52.7948],[140.0675,52.7842],[140.0734,52.7801],[140.0938,52.7726],[140.0997,52.7679],[140.1065,52.7582],[140.1094,52.7527],[140.1108,52.7474],[140.1066,52.7321],[140.0873,52.7077],[140.088,52.6927],[140.1279,52.627],[140.1353,52.6189],[140.1498,52.6086],[140.1665,52.6016],[140.2018,52.5942],[140.2212,52.5933],[140.2599,52.5958],[140.2791,52.5948],[140.3042,52.583],[140.3225,52.5611],[140.3533,52.5135],[140.3731,52.4941],[140.3848,52.486],[140.3972,52.4811],[140.3994,52.4757],[140.4033,52.4708],[140.4083,52.4669],[140.4138,52.4646],[140.4169,52.4585],[140.428,52.4485],[140.4324,52.4431],[140.438,52.4296],[140.441,52.4153],[140.4401,52.3875],[140.441,52.3784],[140.4448,52.3699],[140.4498,52.3637],[140.4539,52.3572],[140.4541,52.3476],[140.4492,52.3338],[140.4412,52.319],[140.4312,52.3053],[140.4111,52.2864],[140.4049,52.279],[140.4011,52.2701],[140.3989,52.2573],[140.3989,52.2332],[140.3955,52.2236],[140.376,52.1978],[140.3723,52.1883],[140.3705,52.1682],[140.3677,52.1588],[140.3608,52.1512],[140.3511,52.1473],[140.3306,52.1435],[140.3198,52.1399],[140.3105,52.1349],[140.252,52.093],[140.2255,52.0664],[140.1744,52.0268],[140.1638,52.0091],[140.1651,51.9943],[140.2051,51.9409],[140.2115,51.9287],[140.2212,51.9015],[140.2418,51.8598],[140.2429,51.8451],[140.2367,51.8308],[140.2251,51.8196],[140.114,51.7637]],[[139.8576,51.5788],[139.8232,51.5763],[139.782,51.5624],[139.6519,51.5371],[139.5392,51.5368],[139.5173,51.5328],[139.4962,51.5226],[139.4814,51.5074],[139.4732,51.4894],[139.4673,51.47],[139.4588,51.4507],[139.4443,51.4336],[139.4263,51.4213],[139.2349,51.3579],[139.208,51.3532],[139.1784,51.3536],[139.0112,51.389],[138.9324,51.3802],[138.8976,51.3144],[138.8953,51.292],[138.8884,51.2743],[138.8753,51.261],[138.8544,51.2518],[138.6746,51.2071],[138.6553,51.2017],[138.6372,51.1934],[138.6216,51.1815],[138.5995,51.1485],[138.5879,51.1362],[138.5737,51.1269],[138.5549,51.1195],[138.4497,51.1013],[138.4409,51.0978],[138.4329,51.0927],[138.3776,51.0343],[138.3613,51.0217],[138.2764,50.9713],[138.2517,50.9622],[138.2078,50.9527],[138.1943,50.947],[138.1827,50.9374],[138.1589,50.8983],[138.1493,50.8861],[138.1384,50.8764],[138.1255,50.8697],[138.1106,50.8663],[138.0654,50.8635],[138.0508,50.8601],[138.0386,50.8546],[137.9176,50.7622],[137.8659,50.739],[137.6885,50.6891],[137.591,50.6765],[137.4968,50.6823],[137.4088,50.6712],[137.3678,50.6707],[137.2332,50.6402],[137.2107,50.6293],[137.1905,50.6148],[137.1539,50.5775],[137.1121,50.5456],[137.0564,50.5148],[137.0488,50.5064],[137.0463,50.4951],[137.0499,50.4844],[137.064,50.4654],[137.0698,50.454]],[[136.8106,49.7593],[136.8254,49.7531],[136.8412,49.7447],[136.8501,49.7335],[136.8533,49.7191],[136.8461,49.6692],[136.8473,49.6539],[136.8541,49.6199],[136.8525,49.6044],[136.8466,49.5899],[136.8367,49.5757],[136.8159,49.5534],[136.792,49.5326],[136.7656,49.5151],[136.7378,49.5028],[136.7193,49.4984],[136.6441,49.4905],[136.5313,49.4659],[136.4504,49.4288],[136.4352,49.4185],[136.4259,49.4061],[136.4214,49.391],[136.4201,49.3557],[136.416,49.3433],[136.4072,49.3336],[136.3784,49.3129],[136.3689,49.3001],[136.3546,49.2687],[136.3433,49.2546],[136.3276,49.2469],[136.293,49.236],[136.2695,49.2135],[136.2725,49.1851],[136.2998,49.1249],[136.3024,49.1077],[136.3027,49.0902],[136.2991,49.0733],[136.2907,49.0579],[136.2765,49.0436],[136.1497,48.9648],[136.1139,48.9545],[136.0083,48.9403],[135.9941,48.9345],[135.9807,48.926],[135.9714,48.9136],[135.9678,48.8995],[135.9658,48.8846],[135.9607,48.8701],[135.94,48.8478],[135.9124,48.835],[135.8176,48.8172],[135.8027,48.8098],[135.7896,48.798],[135.7815,48.7843],[135.7759,48.7712],[135.7683,48.7602],[135.7544,48.7531],[135.7203,48.7465],[135.6836,48.7437],[135.6472,48.7459],[135.6137,48.755],[135.5807,48.7678],[135.5475,48.7768],[135.5136,48.7791],[135.4788,48.7718],[135.4238,48.7495],[135.3738,48.7357],[135.3574,48.7342],[135.3408,48.7364],[135.3079,48.7453],[135.2909,48.7472],[135.273,48.7456],[135.2555,48.7412],[135.2388,48.7344],[135.1535,48.6785],[135.0464,48.6352],[135.023,48.6149],[135.0044,48.5831],[134.9973,48.5486],[135.0088,48.52],[135.0376,48.4882],[135.043,48.4859],[135.0475,48.4726],[135.0496,48.4593],[135.0464,48.4471],[135.0356,48.4374],[135.0192,48.4332],[134.9659,48.4366],[134.9246,48.4334],[134.8839,48.4244],[134.7691,48.3738],[134.7515,48.3716],[134.7344,48.3734],[134.5981,48.4164],[134.5802,48.4178],[134.5051,48.4137],[134.4962,48.4117],[134.4473,48.3951],[134.367,48.3773],[134.2057,48.3599],[134.1157,48.3355],[134.0567,48.3275],[134.0403,48.3227],[134.0245,48.3154],[133.9822,48.2853],[133.9662,48.2789],[133.9366,48.2735],[133.8772,48.2755],[133.8673,48.2746],[133.8492,48.2696],[133.8147,48.2554],[133.7963,48.2508],[133.7377,48.2513],[133.7209,48.245],[133.7076,48.232],[133.6852,48.2024],[133.67,48.1903],[133.6543,48.1841],[133.6211,48.1776],[133.6052,48.1719],[133.5934,48.1644],[133.5845,48.1556],[133.5776,48.1453],[133.5718,48.133],[133.5597,48.1136],[133.5435,48.1018],[133.524,48.0957],[133.4634,48.0897],[133.4506,48.0916],[133.4129,48.1033],[133.3959,48.1061],[133.3792,48.1066],[133.3233,48.1004],[133.3012,48.1015],[133.2905,48.1046],[133.2725,48.1153],[133.2625,48.1197],[133.2234,48.1262],[133.1848,48.1251],[133.0917,48.107],[133.075,48.1011],[133.0606,48.0921],[133.0508,48.0788],[133.0473,48.0718],[133.0438,48.0665],[133.0391,48.0618],[133.0325,48.0571],[133.0244,48.0527],[132.9405,48.0269],[132.94,48.0228],[132.8645,47.9859],[132.8533,47.9764],[132.8331,47.9519],[132.8203,47.9426],[132.8056,47.9365],[132.7892,47.933],[132.7747,47.9339],[132.7622,47.9396],[132.7378,47.9544],[132.7223,47.9592],[132.7055,47.9606],[132.6889,47.958],[132.6744,47.9509],[132.6679,47.9454],[132.663,47.9389],[132.6602,47.9316],[132.6606,47.9233],[132.6638,47.9161],[132.6679,47.9096],[132.6712,47.9028],[132.672,47.8947],[132.6677,47.8815],[132.6586,47.8701],[132.6072,47.8278],[132.5811,47.801],[132.5762,47.7945],[132.5734,47.7886],[132.5734,47.7825],[132.5806,47.765],[132.582,47.7564],[132.5801,47.7482],[132.5738,47.7398],[132.5566,47.7237],[132.5469,47.7171],[132.5361,47.7113],[132.5243,47.7077],[132.4756,47.7071],[132.4531,47.7108],[132.4003,47.7301],[132.3662,47.7356],[132.332,47.7368],[132.2642,47.7291],[132.2505,47.7256],[132.2019,47.7008],[132.1887,47.6959],[132.1614,47.6903],[132.1167,47.6897],[132.0889,47.695],[132.025,47.6981],[131.966,47.6903],[131.957,47.6872],[131.9326,47.6725],[131.9241,47.6692],[131.9137,47.6679],[131.9033,47.6684],[131.8941,47.6702],[131.8647,47.6818],[131.8543,47.6844],[131.8357,47.6848],[131.7988,47.6796],[131.78,47.6793],[131.7026,47.6964],[131.6832,47.6949],[131.6304,47.6671],[131.6215,47.6641],[131.6123,47.6622],[131.603,47.6617],[131.5937,47.6626],[131.5845,47.6649],[131.5772,47.6688],[131.5376,47.7035],[131.5074,47.7218],[131.4746,47.7347],[131.4405,47.7414],[131.4181,47.7429],[131.21,47.7094],[131.1669,47.6974],[131.1289,47.6815],[131.1036,47.6768],[131.0841,47.6754],[131.0439,47.6775],[131.0232,47.6826],[130.9833,47.7003],[130.9653,47.7042],[130.9417,47.7182],[130.9381,47.7513],[130.9421,47.7901],[130.9414,47.8209],[130.9067,47.8845],[130.857,47.928],[130.6821,48.0506],[130.6746,48.0642],[130.6707,48.0869],[130.6645,48.1023],[130.6631,48.1166],[130.6746,48.1362],[130.707,48.1636],[130.7293,48.1782],[130.7461,48.1846],[130.7525,48.1899],[130.7633,48.2255],[130.7686,48.2369],[130.7735,48.2445],[130.819,48.2822],[130.8237,48.2944],[130.8247,48.3181],[130.8218,48.3341],[130.8141,48.3402],[130.8032,48.343],[130.7901,48.3485],[130.7796,48.3567],[130.7734,48.3645],[130.7633,48.3832],[130.7429,48.4119],[130.738,48.43],[130.7461,48.4481],[130.7593,48.4682],[130.7587,48.4859],[130.7441,48.4976],[130.7154,48.4993],[130.6391,48.4775],[130.626,48.4825],[130.6243,48.4886],[130.6155,48.5084],[130.613,48.5198],[130.6145,48.5304],[130.6206,48.5495],[130.6199,48.5607],[130.6074,48.577],[130.5862,48.5837],[130.562,48.5884],[130.5405,48.5986],[130.5296,48.6165],[130.533,48.6361],[130.6275,48.7963],[130.6664,48.8417],[130.6762,48.8577],[130.6741,48.871],[130.6504,48.8767],[130.6248,48.8746],[130.5647,48.8562],[130.5406,48.8537],[130.5112,48.8558],[130.4863,48.864],[130.4758,48.8797],[130.465,48.8916],[130.4395,48.8968],[130.3865,48.8966],[130.3379,48.8856],[130.2932,48.8704],[130.249,48.8648],[130.2016,48.8829],[130.0371,48.9722],[129.9966,49.0026],[129.9741,49.0154],[129.9262,49.0259],[129.9131,49.0398],[129.9114,49.0595],[129.9204,49.0821],[129.8829,49.1],[129.8622,49.1068],[129.8412,49.1094],[129.8451,49.1543],[129.8412,49.1674],[129.8245,49.1744],[129.7756,49.1778],[129.7554,49.1845],[129.7416,49.196],[129.7373,49.2058],[129.7348,49.2391],[129.7109,49.2744],[129.6689,49.2794],[129.6189,49.2745],[129.5715,49.2801],[129.5515,49.2907],[129.5387,49.304],[129.5318,49.3218],[129.53,49.3696],[129.5276,49.3851],[129.5195,49.3973],[129.502,49.4111],[129.4804,49.4215],[129.4546,49.4276],[129.4031,49.4309],[129.3784,49.4253],[129.3712,49.4108],[129.373,49.3701],[129.3617,49.3501],[129.3408,49.3414],[129.3159,49.3443],[129.272,49.3755],[129.2452,49.3862],[129.2177,49.3911],[129.1936,49.39],[129.1709,49.3806],[129.1358,49.3544],[129.115,49.349],[129.0875,49.3524],[129.0667,49.3619],[129.0503,49.377],[129.0144,49.4313],[128.9978,49.4415],[128.9468,49.4498],[128.9018,49.472],[128.8789,49.48],[128.8533,49.4808],[128.8096,49.4689],[128.7864,49.4657],[128.7598,49.4711],[128.7499,49.4848],[128.7538,49.5028],[128.7691,49.5209],[128.7791,49.5253],[128.7901,49.5274],[128.7993,49.5321],[128.8032,49.5445],[128.803,49.5554],[128.8015,49.5654],[128.7966,49.5727],[128.7864,49.5755],[128.7592,49.5781],[128.734,49.5846],[128.6865,49.6035],[128.6715,49.6117],[128.6657,49.6097],[128.6349,49.5784],[128.6284,49.5755],[128.551,49.5887],[128.3832,49.5796],[128.3717,49.5755],[128.3647,49.57],[128.3526,49.5548],[128.3445,49.5482],[128.3201,49.545],[128.2678,49.559],[128.2451,49.5516],[128.2249,49.5421],[128.1982,49.5393],[128.0923,49.5418],[128.0669,49.5469],[128.0465,49.5585],[128.0122,49.5877],[127.9912,49.599],[127.9678,49.6035],[127.9551,49.6033],[127.9475,49.6014],[127.9404,49.5961],[127.9298,49.5855],[127.9204,49.5814],[127.907,49.5805],[127.8545,49.5851],[127.8306,49.5941],[127.8093,49.6074],[127.7896,49.6234],[127.7698,49.6341],[127.7217,49.6489],[127.7032,49.6609],[127.6897,49.6817],[127.6867,49.6992],[127.686,49.7171],[127.6797,49.7394],[127.6441,49.7674],[127.5383,49.7902],[127.5078,49.8226],[127.5064,49.8445],[127.5113,49.8693],[127.5205,49.892],[127.532,49.9079],[127.5337,49.9227],[127.5213,49.9415],[127.4942,49.9735],[127.4863,50.0259],[127.5063,50.0637],[127.5698,50.1304],[127.5803,50.1494],[127.5865,50.1674],[127.5897,50.1866],[127.5903,50.209]]]}},{"type":"Feature","properties":{"name":"Bikin","scalerank":8.0},"geometry":{"type":"MultiLineString","coordinates":[[[136.9993,47.0673],[137.0109,47.0987],[137.0405,47.1257],[137.1423,47.1854],[137.162,47.1942],[137.1827,47.1995],[137.2061,47.1993],[137.2313,47.1936],[137.2769,47.1754],[137.2992,47.1644],[137.3098,47.1572],[137.3181,47.1485],[137.3234,47.135],[137.3266,47.1197],[137.3314,47.1054],[137.3419,47.0947],[137.3147,47.0503],[137.3217,47.0416],[137.3538,47.022],[137.363,47.0128],[137.3657,46.9853],[137.3565,46.9271],[137.363,46.9029],[137.3526,46.8855],[137.339,46.8756],[137.3237,46.8671],[137.3079,46.8544],[137.2855,46.8292],[137.2719,46.8175],[137.2538,46.8067],[137.2223,46.7941],[137.2153,46.7899],[137.2057,46.7803],[137.2031,46.7762],[137.2057,46.7488],[137.2105,46.7315],[137.2117,46.721],[137.2144,46.7149],[137.2208,46.7106],[137.2278,46.7074],[137.232,46.7043],[137.2402,46.6903],[137.2389,46.6732],[137.2354,46.6681],[137.2183,46.6538],[137.2117,46.6496],[137.0615,46.6074],[137.0444,46.6071],[137.0234,46.6107],[137.0043,46.6102],[136.9918,46.5978],[136.9995,46.5932],[137.0064,46.587],[137.0112,46.5793],[137.0129,46.5706],[137.0073,46.564],[136.9885,46.5637],[136.9918,46.5569],[136.9707,46.5485],[136.9472,46.5323],[136.9228,46.5207],[136.8994,46.5264],[136.8776,46.5374],[136.7478,46.5707],[136.727,46.5813],[136.7079,46.6131],[136.6832,46.6196],[136.5259,46.6246],[136.4302,46.6434],[136.3965,46.6553],[136.3823,46.6577],[136.3409,46.6567],[136.3307,46.6608],[136.3137,46.6745],[136.2919,46.6876],[136.268,46.6983],[136.2451,46.7049],[136.1445,46.705],[136.1186,46.7157],[136.0967,46.7296],[136.063,46.744],[136.0289,46.7517],[136.0049,46.7458],[135.9822,46.7552],[135.9605,46.7494],[135.9397,46.7386],[135.9197,46.7327],[135.8757,46.7289],[135.8344,46.7191],[135.7905,46.7084],[135.7424,46.7049],[135.7173,46.711],[135.6975,46.7239],[135.6769,46.7341],[135.6493,46.7327],[135.6427,46.7268],[135.6358,46.7164],[135.627,46.7062],[135.6152,46.7009],[135.6026,46.701],[135.5723,46.7067],[135.5602,46.7111],[135.5348,46.7149],[135.5099,46.7064],[135.4879,46.6915],[135.4547,46.6615],[135.4487,46.6538],[135.4433,46.6422],[135.4414,46.6297],[135.4421,46.6189],[135.4409,46.6085],[135.4334,46.5978],[135.3828,46.5477],[135.3613,46.533],[135.3103,46.5173],[135.0484,46.5702],[135.0372,46.5679],[135.0325,46.5568],[135.0261,46.5496],[135.0118,46.5496],[134.9846,46.5534],[134.9653,46.5457],[134.9295,46.5238],[134.9055,46.5193],[134.8765,46.5207],[134.8526,46.5247],[134.8064,46.5397],[134.7585,46.55],[134.7096,46.5493],[134.5792,46.5232],[134.4561,46.4749],[134.4446,46.478],[134.429,46.492],[134.4249,46.4986],[134.419,46.5139],[134.416,46.5193],[134.4099,46.5235],[134.3946,46.5295],[134.3893,46.533],[134.3941,46.5429],[134.3931,46.5516],[134.3882,46.5594],[134.3814,46.5665],[134.367,46.5745],[134.3564,46.5725],[134.3477,46.5676],[134.3403,46.5665],[134.3276,46.5793],[134.3314,46.5958],[134.354,46.6292],[134.3621,46.65],[134.3643,46.6697],[134.3614,46.711],[134.3621,46.7225],[134.3638,46.7318],[134.3643,46.7391],[134.3614,46.7452],[134.3487,46.7529],[134.3378,46.7508],[134.3264,46.746],[134.313,46.7452],[134.2969,46.7536],[134.251,46.8005],[134.229,46.8138],[134.2101,46.8187],[134.1912,46.8177],[134.1148,46.7989],[134.0938,46.8005],[134.053,46.8209],[134.0473,46.8286],[134.0392,46.8544]]]}}]}